[{"ORDINAL":"1","COMMENT":"GENERATED VIA SPACETRACK.ORG API","ORIGINATOR":"JSPOC","NORAD_CAT_ID":"26931","OBJECT_NAME":"PCSAT","OBJECT_TYPE":"PAYLOAD","CLASSIFICATION_TYPE":"U","INTLDES":"01043C","EPOCH":"2018-10-12 11:07:56","EPOCH_MICROSECONDS":"928576","MEAN_MOTION":"14.30519516","ECCENTRICITY":"0.000722","INCLINATION":"67.05","RA_OF_ASC_NODE":"286.795","ARG_OF_PERICENTER":"259.5992","MEAN_ANOMALY":"100.4295","EPHEMERIS_TYPE":"0","ELEMENT_SET_NO":"999","REV_AT_EPOCH":"88932","BSTAR":"1.7367e-05","MEAN_MOTION_DOT":"-3.8e-07","MEAN_MOTION_DDOT":"0","FILE":"2344087","TLE_LINE0":"0 PCSAT","TLE_LINE1":"1 26931U 01043C   18285.46385334 -.00000038  00000-0  17367-4 0  9999","TLE_LINE2":"2 26931  67.0500 286.7950 0007220 259.5992 100.4295 14.30519516889326","OBJECT_ID":"2001-043C","OBJECT_NUMBER":"26931","SEMIMAJOR_AXIS":"7168.131","PERIOD":"100.662","APOGEE":"795.172","PERIGEE":"784.821"},{"ORDINAL":"1","COMMENT":"GENERATED VIA SPACETRACK.ORG API","ORIGINATOR":"JSPOC","NORAD_CAT_ID":"26932","OBJECT_NAME":"SAPPHIRE","OBJECT_TYPE":"PAYLOAD","CLASSIFICATION_TYPE":"U","INTLDES":"01043D","EPOCH":"2018-10-12 10:30:29","EPOCH_MICROSECONDS":"456352","MEAN_MOTION":"14.30289897","ECCENTRICITY":"0.0008994","INCLINATION":"67.0549","RA_OF_ASC_NODE":"289.8968","ARG_OF_PERICENTER":"263.802","MEAN_ANOMALY":"96.2056","EPHEMERIS_TYPE":"0","ELEMENT_SET_NO":"999","REV_AT_EPOCH":"88933","BSTAR":"1.6877e-05","MEAN_MOTION_DOT":"-3.9e-07","MEAN_MOTION_DDOT":"0","FILE":"2344087","TLE_LINE0":"0 SAPPHIRE","TLE_LINE1":"1 26932U 01043D   18285.43784093 -.00000039  00000-0  16877-4 0  9998","TLE_LINE2":"2 26932  67.0549 289.8968 0008994 263.8020  96.2056 14.30289897889336","OBJECT_ID":"2001-043D","OBJECT_NUMBER":"26932","SEMIMAJOR_AXIS":"7168.898","PERIOD":"100.678","APOGEE":"797.211","PERIGEE":"784.316"},{"ORDINAL":"1","COMMENT":"GENERATED VIA SPACETRACK.ORG API","ORIGINATOR":"JSPOC","NORAD_CAT_ID":"27605","OBJECT_NAME":"RUBIN 2","OBJECT_TYPE":"PAYLOAD","CLASSIFICATION_TYPE":"U","INTLDES":"02058A","EPOCH":"2018-10-12 13:36:40","EPOCH_MICROSECONDS":"139136","MEAN_MOTION":"14.75006859","ECCENTRICITY":"0.0076606","INCLINATION":"64.5549","RA_OF_ASC_NODE":"74.5551","ARG_OF_PERICENTER":"304.4982","MEAN_ANOMALY":"54.8901","EPHEMERIS_TYPE":"0","ELEMENT_SET_NO":"999","REV_AT_EPOCH":"85062","BSTAR":"1.0336e-05","MEAN_MOTION_DOT":"-7.6e-07","MEAN_MOTION_DDOT":"0","FILE":"2344089","TLE_LINE0":"0 RUBIN 2","TLE_LINE1":"1 27605U 02058A   18285.56713124 -.00000076  00000-0  10336-4 0  9999","TLE_LINE2":"2 27605  64.5549  74.5551 0076606 304.4982  54.8901 14.75006859850620","OBJECT_ID":"2002-058A","OBJECT_NUMBER":"27605","SEMIMAJOR_AXIS":"7023.266","PERIOD":"97.626","APOGEE":"698.933","PERIGEE":"591.329"},{"ORDINAL":"1","COMMENT":"GENERATED VIA SPACETRACK.ORG API","ORIGINATOR":"JSPOC","NORAD_CAT_ID":"27607","OBJECT_NAME":"SAUDISAT 1C","OBJECT_TYPE":"PAYLOAD","CLASSIFICATION_TYPE":"U","INTLDES":"02058C","EPOCH":"2018-10-11 18:59:11","EPOCH_MICROSECONDS":"890176","MEAN_MOTION":"14.75486562","ECCENTRICITY":"0.0075754","INCLINATION":"64.5539","RA_OF_ASC_NODE":"93.5936","ARG_OF_PERICENTER":"304.2519","MEAN_ANOMALY":"55.1423","EPHEMERIS_TYPE":"0","ELEMENT_SET_NO":"999","REV_AT_EPOCH":"85016","BSTAR":"1.8948e-05","MEAN_MOTION_DOT":"-1.4e-07","MEAN_MOTION_DDOT":"0","FILE":"2343808","TLE_LINE0":"0 SAUDISAT 1C","TLE_LINE1":"1 27607U 02058C   18284.79110984 -.00000014  00000-0  18948-4 0  9999","TLE_LINE2":"2 27607  64.5539  93.5936 0075754 304.2519  55.1423 14.75486562850161","OBJECT_ID":"2002-058C","OBJECT_NUMBER":"27607","SEMIMAJOR_AXIS":"7021.744","PERIOD":"97.594","APOGEE":"696.801","PERIGEE":"590.416"},{"ORDINAL":"1","COMMENT":"GENERATED VIA SPACETRACK.ORG API","ORIGINATOR":"JSPOC","NORAD_CAT_ID":"27844","OBJECT_NAME":"CUTE-1","OBJECT_TYPE":"PAYLOAD","CLASSIFICATION_TYPE":"U","INTLDES":"03031E","EPOCH":"2018-10-11 14:38:33","EPOCH_MICROSECONDS":"401184","MEAN_MOTION":"14.22137427","ECCENTRICITY":"0.0010512","INCLINATION":"98.6878","RA_OF_ASC_NODE":"291.553","ARG_OF_PERICENTER":"39.924","MEAN_ANOMALY":"320.2708","EPHEMERIS_TYPE":"0","ELEMENT_SET_NO":"999","REV_AT_EPOCH":"79270","BSTAR":"4.0912e-05","MEAN_MOTION_DOT":"4.7e-07","MEAN_MOTION_DDOT":"0","FILE":"2343880","TLE_LINE0":"0 CUTE-1","TLE_LINE1":"1 27844U 03031E   18284.61010881 +.00000047 +00000-0 +40912-4 0  9991","TLE_LINE2":"2 27844 098.6878 291.5530 0010512 039.9240 320.2708 14.22137427792704","OBJECT_ID":"2003-031E","OBJECT_NUMBER":"27844","SEMIMAJOR_AXIS":"7196.270","PERIOD":"101.256","APOGEE":"825.699","PERIGEE":"810.570"},{"ORDINAL":"1","COMMENT":"GENERATED VIA SPACETRACK.ORG API","ORIGINATOR":"JSPOC","NORAD_CAT_ID":"27848","OBJECT_NAME":"CUBESAT XI 4","OBJECT_TYPE":"PAYLOAD","CLASSIFICATION_TYPE":"U","INTLDES":"03031J","EPOCH":"2018-10-12 12:24:15","EPOCH_MICROSECONDS":"456384","MEAN_MOTION":"14.21738737","ECCENTRICITY":"0.0010504","INCLINATION":"98.6962","RA_OF_ASC_NODE":"292.882","ARG_OF_PERICENTER":"47.5559","MEAN_ANOMALY":"312.6505","EPHEMERIS_TYPE":"0","ELEMENT_SET_NO":"999","REV_AT_EPOCH":"79273","BSTAR":"3.3154e-05","MEAN_MOTION_DOT":"2.9e-07","MEAN_MOTION_DDOT":"0","FILE":"2344082","TLE_LINE0":"0 CUBESAT XI 4","TLE_LINE1":"1 27848U 03031J   18285.51684556  .00000029  00000-0  33154-4 0  9991","TLE_LINE2":"2 27848  98.6962 292.8820 0010504  47.5559 312.6505 14.21738737792730","OBJECT_ID":"2003-031J","OBJECT_NUMBER":"27848","SEMIMAJOR_AXIS":"7197.615","PERIOD":"101.284","APOGEE":"827.040","PERIGEE":"811.920"},{"ORDINAL":"1","COMMENT":"GENERATED VIA SPACETRACK.ORG API","ORIGINATOR":"JSPOC","NORAD_CAT_ID":"27939","OBJECT_NAME":"MOZHAYETS 4","OBJECT_TYPE":"PAYLOAD","CLASSIFICATION_TYPE":"U","INTLDES":"03042A","EPOCH":"2018-10-12 12:06:05","EPOCH_MICROSECONDS":"643936","MEAN_MOTION":"14.66721947","ECCENTRICITY":"0.0013874","INCLINATION":"98.0063","RA_OF_ASC_NODE":"61.726","ARG_OF_PERICENTER":"133.453","MEAN_ANOMALY":"226.784","EPHEMERIS_TYPE":"0","ELEMENT_SET_NO":"999","REV_AT_EPOCH":"80401","BSTAR":"3.5134e-05","MEAN_MOTION_DOT":"1.48e-06","MEAN_MOTION_DDOT":"0","FILE":"2344056","TLE_LINE0":"0 MOZHAYETS 4","TLE_LINE1":"1 27939U 03042A   18285.50423199  .00000148  00000-0  35134-4 0  9999","TLE_LINE2":"2 27939  98.0063  61.7260 0013874 133.4530 226.7840 14.66721947804011","OBJECT_ID":"2003-042A","OBJECT_NUMBER":"27939","SEMIMAJOR_AXIS":"7049.689","PERIOD":"98.178","APOGEE":"681.335","PERIGEE":"661.773"},{"ORDINAL":"1","COMMENT":"GENERATED VIA SPACETRACK.ORG API","ORIGINATOR":"JSPOC","NORAD_CAT_ID":"28375","OBJECT_NAME":"AMSAT ECHO","OBJECT_TYPE":"PAYLOAD","CLASSIFICATION_TYPE":"U","INTLDES":"04025K","EPOCH":"2018-10-12 12:25:07","EPOCH_MICROSECONDS":"79520","MEAN_MOTION":"14.41900982","ECCENTRICITY":"0.0081266","INCLINATION":"98.3891","RA_OF_ASC_NODE":"214.8988","ARG_OF_PERICENTER":"269.6622","MEAN_ANOMALY":"89.5256","EPHEMERIS_TYPE":"0","ELEMENT_SET_NO":"999","REV_AT_EPOCH":"75132","BSTAR":"1.8981e-05","MEAN_MOTION_DOT":"1.8e-07","MEAN_MOTION_DDOT":"0","FILE":"2344108","TLE_LINE0":"0 AMSAT ECHO","TLE_LINE1":"1 28375U 04025K   18285.51744305  .00000018  00000-0  18981-4 0  9999","TLE_LINE2":"2 28375  98.3891 214.8988 0081266 269.6622  89.5256 14.41900982751322","OBJECT_ID":"2004-025K","OBJECT_NUMBER":"28375","SEMIMAJOR_AXIS":"7130.361","PERIOD":"99.868","APOGEE":"810.172","PERIGEE":"694.280"},{"ORDINAL":"1","COMMENT":"GENERATED VIA SPACETRACK.ORG API","ORIGINATOR":"JSPOC","NORAD_CAT_ID":"28650","OBJECT_NAME":"HAMSAT","OBJECT_TYPE":"PAYLOAD","CLASSIFICATION_TYPE":"U","INTLDES":"05017B","EPOCH":"2018-10-12 12:02:22","EPOCH_MICROSECONDS":"775136","MEAN_MOTION":"14.89004062","ECCENTRICITY":"0.0022882","INCLINATION":"97.7137","RA_OF_ASC_NODE":"250.4726","ARG_OF_PERICENTER":"338.5086","MEAN_ANOMALY":"21.5168","EPHEMERIS_TYPE":"0","ELEMENT_SET_NO":"999","REV_AT_EPOCH":"72793","BSTAR":"3.7833e-05","MEAN_MOTION_DOT":"3.02e-06","MEAN_MOTION_DDOT":"0","FILE":"2344101","TLE_LINE0":"0 HAMSAT","TLE_LINE1":"1 28650U 05017B   18285.50165249  .00000302  00000-0  37833-4 0  9993","TLE_LINE2":"2 28650  97.7137 250.4726 0022882 338.5086  21.5168 14.89004062727933","OBJECT_ID":"2005-017B","OBJECT_NUMBER":"28650","SEMIMAJOR_AXIS":"6979.183","PERIOD":"96.708","APOGEE":"617.017","PERIGEE":"585.078"},{"ORDINAL":"1","COMMENT":"GENERATED VIA SPACETRACK.ORG API","ORIGINATOR":"JSPOC","NORAD_CAT_ID":"28895","OBJECT_NAME":"CUBESAT XI 5","OBJECT_TYPE":"PAYLOAD","CLASSIFICATION_TYPE":"U","INTLDES":"05043F","EPOCH":"2018-10-12 09:20:15","EPOCH_MICROSECONDS":"355104","MEAN_MOTION":"14.63589445","ECCENTRICITY":"0.0017976","INCLINATION":"97.9257","RA_OF_ASC_NODE":"72.212","ARG_OF_PERICENTER":"61.7058","MEAN_ANOMALY":"298.5956","EPHEMERIS_TYPE":"0","ELEMENT_SET_NO":"999","REV_AT_EPOCH":"69102","BSTAR":"3.7562e-05","MEAN_MOTION_DOT":"1.5e-06","MEAN_MOTION_DDOT":"0","FILE":"2344073","TLE_LINE0":"0 CUBESAT XI 5","TLE_LINE1":"1 28895U 05043F   18285.38906661  .00000150  00000-0  37562-4 0  9990","TLE_LINE2":"2 28895  97.9257  72.2120 0017976  61.7058 298.5956 14.63589445691025","OBJECT_ID":"2005-043F","OBJECT_NUMBER":"28895","SEMIMAJOR_AXIS":"7059.744","PERIOD":"98.388","APOGEE":"694.300","PERIGEE":"668.919"},{"ORDINAL":"1","COMMENT":"GENERATED VIA SPACETRACK.ORG API","ORIGINATOR":"JSPOC","NORAD_CAT_ID":"32785","OBJECT_NAME":"CUTE-1.7+APD II","OBJECT_TYPE":"PAYLOAD","CLASSIFICATION_TYPE":"U","INTLDES":"08021C","EPOCH":"2018-10-12 12:20:01","EPOCH_MICROSECONDS":"58496","MEAN_MOTION":"14.88186936","ECCENTRICITY":"0.0013458","INCLINATION":"97.5475","RA_OF_ASC_NODE":"292.0928","ARG_OF_PERICENTER":"16.0734","MEAN_ANOMALY":"344.0907","EPHEMERIS_TYPE":"0","ELEMENT_SET_NO":"999","REV_AT_EPOCH":"56662","BSTAR":"3.0858e-05","MEAN_MOTION_DOT":"2.33e-06","MEAN_MOTION_DDOT":"0","FILE":"2344071","TLE_LINE0":"0 CUTE-1.7+APD II","TLE_LINE1":"1 32785U 08021C   18285.51390114  .00000233  00000-0  30858-4 0  9990","TLE_LINE2":"2 32785  97.5475 292.0928 0013458  16.0734 344.0907 14.88186936566624","OBJECT_ID":"2008-021C","OBJECT_NUMBER":"32785","SEMIMAJOR_AXIS":"6981.737","PERIOD":"96.762","APOGEE":"612.998","PERIGEE":"594.206"}]